STARLINK-33809          
1 63508U 25071R   26068.50705340  .00032875  00000+0  11179-2 0  9998
2 63508  53.1583 140.6134 0001210  88.6701 271.4439 15.30178871 52684
2025-313BE              
1 67482U 25313BE  26068.69721505  .00077178  00000+0  26504-2 0  9996
2 67482  97.3989 145.3568 0007208 335.3714  24.7181 15.29801687  7972
